ORBCOMM FM115           
1 41186U 15081H   25192.23365748  .00000274  00000+0  87831-4 0  9995
2 41186  46.9990 285.1903 0001302 219.6633 140.4160 14.62532017511298
ORBCOMM FM108           
1 41187U 15081J   25191.67258325  .00000384  00000+0  11906-3 0  9996
2 41187  47.0064 356.0592 0001898  62.9513 297.1566 14.58178871510222
ORBCOMM FM117           
1 41188U 15081K   25191.70734383  .00000379  00000+0  11803-3 0  9994
2 41188  47.0027 354.6494 0002492  75.7696 284.3466 14.58183420510270
ORBCOMM FM116           
1 41189U 15081L   25192.10644952  .00000430  00000+0  12870-3 0  9995
2 41189  47.0026  82.6056 0002421 274.5873  85.4736 14.58243732509215
